QZS-1R                  
1 49336U 21096A   24265.40636218 -.00000247  00000+0  00000+0 0  9994
2 49336  36.1421  89.0677 0743815 269.7937 282.8879  1.00288880 10653
